{
  "type": "FeatureCollection",
  "features": [
    {
      "type": "Feature",
      "properties": {
        "norad_id": 29740,
        "name": "FENGYUN 1C DEB",
        "group": "fengyun-1c-debris",
        "lat": 80.35287584317166,
        "lon": 97.84081065916374,
        "alt_km": 1395.9631358880706,
        "timestamp": "2025-12-26T16:33:55.843146+00:00",
        "meta_object_name": "FENGYUN 1C DEB",
        "meta_object_id": "1999-025AE",
        "meta_epoch": "2025-12-25T00:15:21.341952",
        "meta_mean_motion": 12.08324151,
        "meta_eccentricity": 0.09735117,
        "meta_inclination": 99.0459,
        "meta_ra_of_asc_node": 207.0726,
        "meta_arg_of_pericenter": 174.1661,
        "meta_mean_anomaly": 187.1776,
        "meta_ephemeris_type": 0,
        "meta_classification_type": "U",
        "meta_norad_cat_id": 29740,
        "meta_element_set_no": 999,
        "meta_rev_at_epoch": 83083,
        "meta_bstar": 5.4899658e-05,
        "meta_mean_motion_dot": -3e-08,
        "meta_mean_motion_ddot": 0,
        "tle_line1": "1 29740U 99025AE  25359.01066368 -.00000003  00000+0  54900-4 0  9996",
        "tle_line2": "2 29740  99.0459 207.0726 0973511 174.1661 187.1776 12.08324151830832"
      },
      "geometry": {
        "type": "Point",
        "coordinates": [
          97.84081065916374,
          80.35287584317166
        ]
      }
    },
    {
      "type": "Feature",
      "properties": {
        "norad_id": 29741,
        "name": "FENGYUN 1C DEB",
        "group": "fengyun-1c-debris",
        "lat": -44.47123669627018,
        "lon": -119.81197124583768,
        "alt_km": 1481.1790258098936,
        "timestamp": "2025-12-26T16:33:55.843156+00:00",
        "meta_object_name": "FENGYUN 1C DEB",
        "meta_object_id": "1999-025AF",
        "meta_epoch": "2025-12-25T03:33:06.838848",
        "meta_mean_motion": 12.00990404,
        "meta_eccentricity": 0.10262894,
        "meta_inclination": 99.1727,
        "meta_ra_of_asc_node": 229.9579,
        "meta_arg_of_pericenter": 39.5631,
        "meta_mean_anomaly": 101.8588,
        "meta_ephemeris_type": 0,
        "meta_classification_type": "U",
        "meta_norad_cat_id": 29741,
        "meta_element_set_no": 999,
        "meta_rev_at_epoch": 52332,
        "meta_bstar": 0.0058428607,
        "meta_mean_motion_dot": 2.283e-05,
        "meta_mean_motion_ddot": 0,
        "tle_line1": "1 29741U 99025AF  25359.14799582  .00002283  00000+0  58429-2 0  9991",
        "tle_line2": "2 29741  99.1727 229.9579 1026289  39.5631 101.8588 12.00990404523323"
      },
      "geometry": {
        "type": "Point",
        "coordinates": [
          -119.81197124583768,
          -44.47123669627018
        ]
      }
    },
    {
      "type": "Feature",
      "properties": {
        "norad_id": 29748,
        "name": "FENGYUN 1C DEB",
        "group": "fengyun-1c-debris",
        "lat": 80.07655164745732,
        "lon": -171.58294572302123,
        "alt_km": 1826.405564383028,
        "timestamp": "2025-12-26T16:33:55.843166+00:00",
        "meta_object_name": "FENGYUN 1C DEB",
        "meta_object_id": "1999-025AN",
        "meta_epoch": "2025-12-24T01:35:25.055808",
        "meta_mean_motion": 11.90656496,
        "meta_eccentricity": 0.08691967,
        "meta_inclination": 99.7818,
        "meta_ra_of_asc_node": 286.0832,
        "meta_arg_of_pericenter": 352.5635,
        "meta_mean_anomaly": 6.319,
        "meta_ephemeris_type": 0,
        "meta_classification_type": "U",
        "meta_norad_cat_id": 29748,
        "meta_element_set_no": 999,
        "meta_rev_at_epoch": 78868,
        "meta_bstar": 0.11647721,
        "meta_mean_motion_dot": 0.00024365,
        "meta_mean_motion_ddot": 0,
        "tle_line1": "1 29748U 99025AN  25358.06626222  .00024365  00000+0  11648+0 0  9992",
        "tle_line2": "2 29748  99.7818 286.0832 0869196 352.5635   6.3190 11.90656496788684"
      },
      "geometry": {
        "type": "Point",
        "coordinates": [
          -171.58294572302123,
          80.07655164745732
        ]
      }
    },
    {
      "type": "Feature",
      "properties": {
        "norad_id": 29750,
        "name": "FENGYUN 1C DEB",
        "group": "fengyun-1c-debris",
        "lat": 75.5510749664592,
        "lon": -113.85277438097032,
        "alt_km": 877.1528608863664,
        "timestamp": "2025-12-26T16:33:55.843176+00:00",
        "meta_object_name": "FENGYUN 1C DEB",
        "meta_object_id": "1999-025AQ",
        "meta_epoch": "2025-12-26T01:02:46.214880",
        "meta_mean_motion": 14.09655309,
        "meta_eccentricity": 0.00351147,
        "meta_inclination": 98.7535,
        "meta_ra_of_asc_node": 28.7946,
        "meta_arg_of_pericenter": 262.8149,
        "meta_mean_anomaly": 159.132,
        "meta_ephemeris_type": 0,
        "meta_classification_type": "U",
        "meta_norad_cat_id": 29750,
        "meta_element_set_no": 999,
        "meta_rev_at_epoch": 97261,
        "meta_bstar": 0.00024269841,
        "meta_mean_motion_dot": 3.85e-06,
        "meta_mean_motion_ddot": 0,
        "tle_line1": "1 29750U 99025AQ  25360.04359045  .00000385  00000+0  24270-3 0  9997",
        "tle_line2": "2 29750  98.7535  28.7946 0035114 262.8149 159.1320 14.09655309972612"
      },
      "geometry": {
        "type": "Point",
        "coordinates": [
          -113.85277438097032,
          75.5510749664592
        ]
      }
    },
    {
      "type": "Feature",
      "properties": {
        "norad_id": 29751,
        "name": "FENGYUN 1C DEB",
        "group": "fengyun-1c-debris",
        "lat": -39.914464819369705,
        "lon": -159.06313169492685,
        "alt_km": 852.8656705852372,
        "timestamp": "2025-12-26T16:33:55.843185+00:00",
        "meta_object_name": "FENGYUN 1C DEB",
        "meta_object_id": "1999-025AR",
        "meta_epoch": "2025-12-26T00:38:10.903776",
        "meta_mean_motion": 14.23639457,
        "meta_eccentricity": 0.00901772,
        "meta_inclination": 98.5402,
        "meta_ra_of_asc_node": 27.5139,
        "meta_arg_of_pericenter": 100.9291,
        "meta_mean_anomaly": 318.8722,
        "meta_ephemeris_type": 0,
        "meta_classification_type": "U",
        "meta_norad_cat_id": 29751,
        "meta_element_set_no": 999,
        "meta_rev_at_epoch": 98262,
        "meta_bstar": 0.00015425778,
        "meta_mean_motion_dot": 3.25e-06,
        "meta_mean_motion_ddot": 0,
        "tle_line1": "1 29751U 99025AR  25360.02651509  .00000325  00000+0  15426-3 0  9993",
        "tle_line2": "2 29751  98.5402  27.5139 0090177 100.9291 318.8722 14.23639457982629"
      },
      "geometry": {
        "type": "Point",
        "coordinates": [
          -159.06313169492685,
          -39.914464819369705
        ]
      }
    },
    {
      "type": "Feature",
      "properties": {
        "norad_id": 29754,
        "name": "FENGYUN 1C DEB",
        "group": "fengyun-1c-debris",
        "lat": 49.24632454294667,
        "lon": -66.07656581775576,
        "alt_km": 814.4305980765685,
        "timestamp": "2025-12-26T16:33:55.843196+00:00",
        "meta_object_name": "FENGYUN 1C DEB",
        "meta_object_id": "1999-025AU",
        "meta_epoch": "2025-12-26T05:56:26.457216",
        "meta_mean_motion": 14.19200817,
        "meta_eccentricity": 0.00366422,
        "meta_inclination": 98.8843,
        "meta_ra_of_asc_node": 103.0223,
        "meta_arg_of_pericenter": 201.1527,
        "meta_mean_anomaly": 188.5609,
        "meta_ephemeris_type": 0,
        "meta_classification_type": "U",
        "meta_norad_cat_id": 29754,
        "meta_element_set_no": 999,
        "meta_rev_at_epoch": 97546,
        "meta_bstar": 0.00096180609,
        "meta_mean_motion_dot": 1.984e-05,
        "meta_mean_motion_ddot": 0,
        "tle_line1": "1 29754U 99025AU  25360.24752844  .00001984  00000+0  96181-3 0  9993",
        "tle_line2": "2 29754  98.8843 103.0223 0036642 201.1527 188.5609 14.19200817975460"
      },
      "geometry": {
        "type": "Point",
        "coordinates": [
          -66.07656581775576,
          49.24632454294667
        ]
      }
    },
    {
      "type": "Feature",
      "properties": {
        "norad_id": 29758,
        "name": "FENGYUN 1C DEB",
        "group": "fengyun-1c-debris",
        "lat": 68.83715649889433,
        "lon": -39.353389660589,
        "alt_km": 762.5116791971286,
        "timestamp": "2025-12-26T16:33:55.843205+00:00",
        "meta_object_name": "FENGYUN 1C DEB",
        "meta_object_id": "1999-025AY",
        "meta_epoch": "2025-12-26T06:20:56.563584",
        "meta_mean_motion": 14.41189417,
        "meta_eccentricity": 0.00224833,
        "meta_inclination": 98.8547,
        "meta_ra_of_asc_node": 116.4603,
        "meta_arg_of_pericenter": 266.8394,
        "meta_mean_anomaly": 155.2042,
        "meta_ephemeris_type": 0,
        "meta_classification_type": "U",
        "meta_norad_cat_id": 29758,
        "meta_element_set_no": 999,
        "meta_rev_at_epoch": 97866,
        "meta_bstar": 0.0025928033,
        "meta_mean_motion_dot": 8.353e-05,
        "meta_mean_motion_ddot": 0,
        "tle_line1": "1 29758U 99025AY  25360.26454356  .00008353  00000+0  25928-2 0  9993",
        "tle_line2": "2 29758  98.8547 116.4603 0022483 266.8394 155.2042 14.41189417978667"
      },
      "geometry": {
        "type": "Point",
        "coordinates": [
          -39.353389660589,
          68.83715649889433
        ]
      }
    }
  ]
}